SIRION PATHFINDER-2     
1 43759U 18099B   26168.11568702  .00003265  00000+0  18059-3 0  9999
2 43759  97.4249 217.1748 0007202 305.6324  54.4237 15.14547360412614
CORVUS BC4              
1 43767U 18099K   26168.05600138  .00003821  00000+0  22299-3 0  9990
2 43767  97.4063 211.0401 0008268  13.6143 346.5310 15.12495924412381
M2 PATHFINDER           
1 45727U 20037E   26168.57887414  .00001317  00000+0  98040-4 0  9990
2 45727  97.8146 359.8151 0012525 144.9775 215.2277 15.04677115325559
NETSAT-4                
1 46504U 20068U   26167.99517375  .00014852  00000+0  32924-3 0  9995
2 46504  97.8600 176.2206 0003869 339.1494  20.9595 15.43860202315745
NETSAT-3                
1 46505U 20068V   26168.52021461  .00014868  00000+0  34277-3 0  9992
2 46505  97.8649 175.0036 0004166   0.5703 359.5547 15.42688001315731
NETSAT-1                
1 46506U 20068W   26168.52664458  .00009573  00000+0  28756-3 0  9994
2 46506  97.8743 169.3378 0004996  31.5449 328.6092 15.34649788315354
NETSAT-2                
1 46507U 20068X   26168.48856875  .00018610  00000+0  38293-3 0  9995
2 46507  97.8608 176.6489 0003412  26.1763 333.9657 15.46009035315781
GREENCUBE (IO-117)      
1 53109U 22080E   26164.29338770 -.00000003  00000+0  00000+0 0  9990
2 53109  70.1444 299.5995 0008910 290.4576  69.5127  6.42583230 91811
SITRO-AIS 5 (KATYS)     
1 57176U 23091L   26168.59338424  .00010184  00000+0  35823-3 0  9999
2 57176  97.5057 232.4965 0012774 102.2049 258.0623 15.29465373164407
SITRO-AIS 6 (CHIRKIN)   
1 57192U 23091AC  26168.57326832  .00008190  00000+0  32116-3 0  9991
2 57192  97.5065 231.5934 0013107 105.3476 254.9211 15.25941276164347
SITRO-AIS 8 (ANOKHIN)   
1 57193U 23091AD  26168.47908043  .00011052  00000+0  35784-3 0  9996
2 57193  97.5053 233.9710 0011785  99.1964 261.0611 15.32141789164493
SITRO-AIS 7 (FARTUSHNIY)
1 57194U 23091AE  26168.57649616  .00008165  00000+0  32322-3 0  9992
2 57194  97.5062 231.4215 0012951 106.1893 254.0771 15.25629427164337
SITRO-AIS 10 (BURDAEV)  
1 57199U 23091AK  26168.57443485  .00016534  00000+0  43486-3 0  9995
2 57199  97.5079 239.1259 0007470  79.3796 280.8290 15.38625011164822
SITRO-AIS 9 (SHCHUKIN)  
1 57201U 23091AM  26168.60095856  .00015994  00000+0  42750-3 0  9990
2 57201  97.5077 238.8827 0007741  79.2034 281.0082 15.38133122164814
SITRO-AIS 12 (SMIRENNIY)
1 57204U 23091AQ  26168.46141379  .00015409  00000+0  40820-3 0  9996
2 57204  97.5091 239.2070 0007284  74.8279 285.3771 15.38421469164818
SITRO-AIS 11 (SHEFFER)  
1 57208U 23091AU  26168.60480448  .00016415  00000+0  42864-3 0  9997
2 57208  97.5088 239.6009 0007128  74.2253 285.9778 15.38850900164850
SITRO-AIS 25            
1 59066U 24039R   26168.57716681  .00002178  00000+0  17182-3 0  9997
2 59066  95.3906 235.3606 0143401 327.3703  31.8720 14.93514680124787
SITRO-AIS 26            
1 59067U 24039S   26168.57859275  .00002181  00000+0  17280-3 0  9998
2 59067  95.3906 235.2591 0143757 327.9571  31.2972 14.93310715124778
SITRO-AIS 27            
1 59068U 24039T   26168.61571625  .00001992  00000+0  15678-3 0  9992
2 59068  95.3913 235.5565 0142719 326.4697  32.7554 14.93733041124808
SITRO-AIS 28            
1 59071U 24039U   26168.59315260  .00002481  00000+0  19443-3 0  9992
2 59071  95.3911 235.5882 0142599 326.3622  32.8611 14.93765428124804
GRBBETA                 
1 60237U 24128C   26168.48551437  .00002424  00000+0  17435-3 0  9999
2 60237  61.9882 215.2195 0040617 134.7304 225.7108 15.06640908106314
OOV-CUBE (TUBSAT-30)    
1 60240U 24128F   26168.58778461  .00001484  00000+0  12396-3 0  9998
2 60240  61.9933 224.1762 0044589 133.8534 226.6256 15.02774856106175
ROBUSTA-3A (MEDITERRAN*)
1 60243U 24128J   26168.59788155  .00004093  00000+0  24768-3 0  9998
2 60243  61.9845 206.7918 0041354 128.0239 232.4601 15.11679517106485
LASARSAT                
1 62391U 24247Q   26167.97623210  .00026221  00000+0  52389-3 0  9994
2 62391  44.9742 263.4006 0008180 330.0323  30.0098 15.46364825 83280
CROCUBE                 
1 62394U 24247T   26165.58698051  .00034757  00000+0  65094-3 0  9997
2 62394  44.9722 274.1999 0008187 320.7516  39.2780 15.48102542 82947
FORESAIL-1 PRIME        
1 66778U 25276DS  26167.99656516  .00004149  00000+0  20320-3 0  9992
2 66778  97.4201 241.2709 0003951 103.8378 256.3296 15.18701638 30378
KNACKSAT-2              
1 67683U 98067XZ  26168.60673955  .00040994  00000+0  49993-3 0  9996
2 67683  51.6314 292.3670 0009087 217.1010 142.9356 15.60014370 20343
